{
  "norad_id": 53276,
  "name": "STARLINK-4174",
  "history": [
    {
      "epoch": "2026-03-28T10:41:26.841120Z",
      "apogee_km": 540.6967303885685,
      "perigee_km": 538.8192136931575,
      "latitude_deg": 3.367589799308962e-05,
      "longitude_deg": 113.69409617910708,
      "height_km": 540.675701025244,
      "semi_major_axis_km": 6917.894972040863,
      "eccentricity": 0.0001357,
      "inclination_deg": 53.2166,
      "raan_deg": 99.9217,
      "arg_perigee_deg": 91.3496,
      "mean_anomaly_deg": 268.7652,
      "mean_motion_rev_day": 15.08835229
    },
    {
      "epoch": "2026-03-29T04:10:41.228256Z",
      "apogee_km": 540.6856017162909,
      "perigee_km": 538.8191551619875,
      "latitude_deg": -5.534246932916678e-05,
      "longitude_deg": -152.60529565139365,
      "height_km": 540.6633889189824,
      "semi_major_axis_km": 6917.889378439139,
      "eccentricity": 0.0001349,
      "inclination_deg": 53.2166,
      "raan_deg": 96.6505,
      "arg_perigee_deg": 90.9435,
      "mean_anomaly_deg": 269.1711,
      "mean_motion_rev_day": 15.08837059
    },
    {
      "epoch": "2026-03-30T00:50:41.800992Z",
      "apogee_km": 540.6421030270067,
      "perigee_km": 538.8559048607876,
      "latitude_deg": -1.983443333427892e-06,
      "longitude_deg": -107.32149829104407,
      "height_km": 540.6274588905895,
      "semi_major_axis_km": 6917.886003943897,
      "eccentricity": 0.0001291,
      "inclination_deg": 53.2165,
      "raan_deg": 92.7854,
      "arg_perigee_deg": 88.8932,
      "mean_anomaly_deg": 271.2208,
      "mean_motion_rev_day": 15.08838163
    },
    {
      "epoch": "2026-03-30T07:12:14.236992Z",
      "apogee_km": 540.6498544560936,
      "perigee_km": 538.8373697357238,
      "latitude_deg": -1.656675426697513e-05,
      "longitude_deg": 155.84278591094244,
      "height_km": 540.6220989566176,
      "semi_major_axis_km": 6917.880612095908,
      "eccentricity": 0.000131,
      "inclination_deg": 53.2167,
      "raan_deg": 91.596,
      "arg_perigee_deg": 88.9114,
      "mean_anomaly_deg": 271.2028,
      "mean_motion_rev_day": 15.08839927
    },
    {
      "epoch": "2026-03-30T07:12:14.237856Z",
      "apogee_km": 540.6499928137046,
      "perigee_km": 538.8372313781119,
      "latitude_deg": -1.842438073219421e-05,
      "longitude_deg": 155.8427809198795,
      "height_km": 540.6220963298256,
      "semi_major_axis_km": 6917.880612095908,
      "eccentricity": 0.00013102,
      "inclination_deg": 53.2167,
      "raan_deg": 91.596,
      "arg_perigee_deg": 88.9114,
      "mean_anomaly_deg": 271.2028,
      "mean_motion_rev_day": 15.08839927
    },
    {
      "epoch": "2026-03-30T16:44:33.508320Z",
      "apogee_km": 540.6503799269831,
      "perigee_km": 538.8673614452728,
      "latitude_deg": -5.331530720603116e-05,
      "longitude_deg": 10.586721911823695,
      "height_km": 540.6188959178629,
      "semi_major_axis_km": 6917.895870686128,
      "eccentricity": 0.00012887,
      "inclination_deg": 53.2163,
      "raan_deg": 89.812,
      "arg_perigee_deg": 87.7069,
      "mean_anomaly_deg": 272.407,
      "mean_motion_rev_day": 15.08834935
    },
    {
      "epoch": "2026-03-31T07:03:02.233440Z",
      "apogee_km": 540.7030829228306,
      "perigee_km": 538.8292996644368,
      "latitude_deg": -2.5200362355918507e-05,
      "longitude_deg": 152.70324775301413,
      "height_km": 540.6613299708712,
      "semi_major_axis_km": 6917.903191293633,
      "eccentricity": 0.00013543,
      "inclination_deg": 53.2169,
      "raan_deg": 87.1358,
      "arg_perigee_deg": 89.968,
      "mean_anomaly_deg": 270.1467,
      "mean_motion_rev_day": 15.0883254
    },
    {
      "epoch": "2026-04-01T08:29:12.535584Z",
      "apogee_km": 540.7389444651881,
      "perigee_km": 538.7728792996313,
      "latitude_deg": 3.4123502025997943e-06,
      "longitude_deg": 125.35831744393916,
      "height_km": 540.6611387778702,
      "semi_major_axis_km": 6917.89291188241,
      "eccentricity": 0.0001421,
      "inclination_deg": 53.2173,
      "raan_deg": 82.3784,
      "arg_perigee_deg": 90.5606,
      "mean_anomaly_deg": 269.5549,
      "mean_motion_rev_day": 15.08835903
    },
    {
      "epoch": "2026-04-02T16:16:54.954048Z",
      "apogee_km": 540.7410298562927,
      "perigee_km": 538.7459131283131,
      "latitude_deg": 5.490589664437031e-05,
      "longitude_deg": 1.1778343758634877,
      "height_km": 540.6148199334923,
      "semi_major_axis_km": 6917.880471492303,
      "eccentricity": 0.0001442,
      "inclination_deg": 53.2175,
      "raan_deg": 76.4304,
      "arg_perigee_deg": 88.6072,
      "mean_anomaly_deg": 271.5086,
      "mean_motion_rev_day": 15.08839973
    },
    {
      "epoch": "2026-04-02T22:38:27.337344Z",
      "apogee_km": 540.7136411914316,
      "perigee_km": 538.7535317394613,
      "latitude_deg": -3.744891305310635e-05,
      "longitude_deg": -95.65821916615982,
      "height_km": 540.6178905247989,
      "semi_major_axis_km": 6917.870586465446,
      "eccentricity": 0.00014167,
      "inclination_deg": 53.2177,
      "raan_deg": 75.2405,
      "arg_perigee_deg": 89.3357,
      "mean_anomaly_deg": 270.7797,
      "mean_motion_rev_day": 15.08843207
    },
    {
      "epoch": "2026-04-03T16:07:41.716704Z",
      "apogee_km": 540.7164385684273,
      "perigee_km": 538.7503797981371,
      "latitude_deg": -2.411984966133719e-06,
      "longitude_deg": -1.9560861519156316,
      "height_km": 540.5256024044704,
      "semi_major_axis_km": 6917.870409183282,
      "eccentricity": 0.0001421,
      "inclination_deg": 53.2168,
      "raan_deg": 71.9707,
      "arg_perigee_deg": 83.9634,
      "mean_anomaly_deg": 276.152,
      "mean_motion_rev_day": 15.08843265
    },
    {
      "epoch": "2026-04-04T04:50:47.354208Z",
      "apogee_km": 540.7977157000441,
      "perigee_km": 538.7087895593604,
      "latitude_deg": 2.646987925821871e-05,
      "longitude_deg": 164.36642625146908,
      "height_km": 540.7858593314568,
      "semi_major_axis_km": 6917.890252629702,
      "eccentricity": 0.00015098,
      "inclination_deg": 53.2169,
      "raan_deg": 69.589,
      "arg_perigee_deg": 97.5455,
      "mean_anomaly_deg": 262.5709,
      "mean_motion_rev_day": 15.08836773
    },
    {
      "epoch": "2026-04-05T07:52:20.746560Z",
      "apogee_km": 540.8220653986973,
      "perigee_km": 538.6730937329012,
      "latitude_deg": -4.780390647083611e-05,
      "longitude_deg": 112.81351886822422,
      "height_km": 540.7262235673223,
      "semi_major_axis_km": 6917.884579565799,
      "eccentricity": 0.00015532,
      "inclination_deg": 53.2168,
      "raan_deg": 64.5352,
      "arg_perigee_deg": 94.4442,
      "mean_anomaly_deg": 265.6727,
      "mean_motion_rev_day": 15.08838629
    },
    {
      "epoch": "2026-04-06T01:21:35.246880Z",
      "apogee_km": 540.788435819969,
      "perigee_km": 538.7343734256683,
      "latitude_deg": 6.9509254446530524e-06,
      "longitude_deg": -153.48584016875333,
      "height_km": 540.7227113754262,
      "semi_major_axis_km": 6917.898404622819,
      "eccentricity": 0.00014846,
      "inclination_deg": 53.217,
      "raan_deg": 61.2644,
      "arg_perigee_deg": 93.6743,
      "mean_anomaly_deg": 266.4419,
      "mean_motion_rev_day": 15.08834106
    },
    {
      "epoch": "2026-04-07T05:58:32.074176Z",
      "apogee_km": 540.7712064058787,
      "perigee_km": 538.7518718223109,
      "latitude_deg": 5.606642330552046e-05,
      "longitude_deg": 130.74930433315737,
      "height_km": 540.6884182112992,
      "semi_major_axis_km": 6917.898539114094,
      "eccentricity": 0.00014595,
      "inclination_deg": 53.2175,
      "raan_deg": 55.9115,
      "arg_perigee_deg": 91.7771,
      "mean_anomaly_deg": 268.3389,
      "mean_motion_rev_day": 15.08834062
    },
    {
      "epoch": "2026-04-08T05:49:18.883488Z",
      "apogee_km": 540.7633447999651,
      "perigee_km": 538.7195267948937,
      "latitude_deg": 4.723647692068849e-05,
      "longitude_deg": 127.61442179903054,
      "height_km": 540.6412555929544,
      "semi_major_axis_km": 6917.878435797429,
      "eccentricity": 0.00014772,
      "inclination_deg": 53.218,
      "raan_deg": 51.451,
      "arg_perigee_deg": 90.2366,
      "mean_anomaly_deg": 269.8796,
      "mean_motion_rev_day": 15.08840639
    }
  ]
}